NORAD_CAT_ID,OBJECT_NAME,OBJECT_TYPE,EPOCH,MEAN_MOTION,ECCENTRICITY,INCLINATION,RA_OF_ASC_NODE,ARG_OF_PERICENTER,MEAN_ANOMALY,BSTAR,MEAN_MOTION_DOT,MEAN_MOTION_DDOT,TLE_LINE0,TLE_LINE1,TLE_LINE2,SEMIMAJOR_AXIS,PERIOD,APOGEE,PERIGEE,DECAYED
52344.0,STARLINK-3851,PAYLOAD,2024-05-15 17:13:39,15.08848508,0.0001518,53.2172,295.3835,118.6023,241.5122,-8.9188e-05,-1.707e-05,0.0,0 STARLINK-3851,1 52344U 22045P   24136.71781834 -.00001707  00000-0 -89188-4 0  9991,2 52344  53.2172 295.3835 0001518 118.6023 241.5122 15.08848508115697,6917.854,95.437,540.77,538.669,0.0
52344.0,STARLINK-3851,PAYLOAD,2024-05-16 10:42:53,15.08848705,0.0001493,53.2171,292.113,116.3602,243.7543,-0.00010476,-1.955e-05,0.0,0 STARLINK-3851,1 52344U 22045P   24137.44645457 -.00001955  00000-0 -10476-3 0  9990,2 52344  53.2171 292.1130 0001493 116.3602 243.7543 15.08848705115802,6917.854,95.437,540.752,538.686,0.0
52344.0,STARLINK-3851,PAYLOAD,2024-05-16 17:04:25,15.08867377,0.000155,53.2149,290.9223,89.0425,271.0744,0.00014053,1.951e-05,0.0,0 STARLINK-3851,1 52344U 22045P   24137.71140487  .00001951  00000-0  14053-3 0  9992,2 52344  53.2149 290.9223 0001550  89.0425 271.0744 15.08867377115846,6917.797,95.436,540.734,538.589,0.0
52344.0,STARLINK-3851,PAYLOAD,2024-05-17 02:36:44,15.08860427,0.0001071,53.216,289.1388,77.7399,282.3713,0.0003489,5.272e-05,0.0,0 STARLINK-3851,1 52344U 22045P   24138.10884553  .00005272  00000-0  34890-3 0  9996,2 52344  53.2160 289.1388 0001071  77.7399 282.3713 15.08860427115900,6917.818,95.436,540.424,538.942,0.0
52344.0,STARLINK-3851,PAYLOAD,2024-05-17 16:55:13,15.08835112,0.0002484,53.2171,286.464,96.6839,263.4436,9.3123e-05,1.194e-05,0.0,0 STARLINK-3851,1 52344U 22045P   24138.70502116  .00001194  00000-0  93123-4 0  9998,2 52344  53.2171 286.4640 0002484  96.6839 263.4436 15.08835112115995,6917.895,95.438,541.479,538.042,0.0
52344.0,STARLINK-3851,PAYLOAD,2024-05-18 02:27:33,15.08826979,0.0002185,53.2177,284.6816,95.6866,264.4376,-8.6332e-05,-1.662e-05,0.0,0 STARLINK-3851,1 52344U 22045P   24139.10246689 -.00001662  00000-0 -86332-4 0  9999,2 52344  53.2177 284.6816 0002185  95.6866 264.4376 15.08826979116056,6917.92,95.438,541.297,538.274,0.0
52344.0,STARLINK-3851,PAYLOAD,2024-05-18 13:35:13,15.08852935,0.0001388,53.2161,282.5968,74.5023,285.6122,7.6823e-05,9.35e-06,0.0,0 STARLINK-3851,1 52344U 22045P   24139.56613144  .00000935  00000-0  76823-4 0  9997,2 52344  53.2161 282.5968 0001388  74.5023 285.6122 15.08852935116122,6917.841,95.437,540.666,538.746,0.0
52344.0,STARLINK-3851,PAYLOAD,2024-05-18 19:56:45,15.08874142,9.69e-05,53.2154,281.4079,79.6994,280.4108,0.00059259,9.165e-05,0.0,0 STARLINK-3851,1 52344U 22045P   24139.83107925  .00009165  00000-0  59259-3 0  9999,2 52344  53.2154 281.4079 0000969  79.6994 280.4108 15.08874142116167,6917.776,95.435,540.311,538.971,0.0
52344.0,STARLINK-3851,PAYLOAD,2024-05-19 02:18:19,15.08838964,0.0003652,53.2146,280.2166,66.0661,294.0713,3.463e-05,2.62e-06,0.0,0 STARLINK-3851,1 52344U 22045P   24140.09606157  .00000262  00000-0  34630-4 0  9996,2 52344  53.2146 280.2166 0003652  66.0661 294.0713 15.08838964116205,6917.884,95.438,542.275,537.222,0.0
52344.0,STARLINK-3851,PAYLOAD,2024-05-19 13:26:02,15.08819361,0.0001576,53.2155,278.1373,81.1114,279.0056,-0.00033237,-5.571e-05,0.0,0 STARLINK-3851,1 52344U 22045P   24140.55974643 -.00005571  00000-0 -33237-3 0  9996,2 52344  53.2155 278.1373 0001576  81.1114 279.0056 15.08819361116275,6917.943,95.439,540.899,538.718,0.0
52344.0,STARLINK-3851,PAYLOAD,2024-05-20 13:16:49,15.08865238,0.0001618,53.216,273.6781,61.0749,299.0406,0.0021421,0.00033992,0.0,0 STARLINK-3851,1 52344U 22045P   24141.55334965  .00033992  00000-0  21421-2 0  9991,2 52344  53.2160 273.6781 0001618  61.0749 299.0406 15.08865238116424,6917.803,95.436,540.788,538.549,0.0
52344.0,STARLINK-3851,PAYLOAD,2024-05-20 14:52:12,15.08868757,0.0001633,53.216,273.3808,60.7435,299.3721,0.0021004,0.00033325,0.0,0 STARLINK-3851,1 52344U 22045P   24141.61958850  .00033325  00000-0  21004-2 0  9990,2 52344  53.2160 273.3808 0001633  60.7435 299.3721 15.08868757116439,6917.792,95.436,540.787,538.528,0.0
52344.0,STARLINK-3851,PAYLOAD,2024-05-21 13:07:36,15.08846476,0.0001056,53.216,269.2173,37.2059,322.9006,0.0012686,0.00019963,0.0,0 STARLINK-3851,1 52344U 22045P   24142.54694805  .00019963  00000-0  12686-2 0  9998,2 52344  53.2160 269.2173 0001056  37.2059 322.9006 15.08846476116576,6917.861,95.437,540.456,538.995,0.0
52344.0,STARLINK-3851,PAYLOAD,2024-05-21 14:42:59,15.088495,0.0001025,53.2156,268.9192,68.0283,292.0818,0.0013769,0.00021699,0.0,0 STARLINK-3851,1 52344U 22045P   24142.61318746  .00021699  00000-0  13769-2 0  9995,2 52344  53.2156 268.9192 0001025  68.0283 292.0818 15.08849500116585,6917.851,95.437,540.425,539.007,0.0
52344.0,STARLINK-3851,PAYLOAD,2024-05-21 22:39:55,15.08820807,0.000217,53.2161,267.4329,53.1314,306.9876,0.0010463,0.00016394,0.0,0 STARLINK-3851,1 52344U 22045P   24142.94439132  .00016394  00000-0  10463-2 0  9998,2 52344  53.2161 267.4329 0002170  53.1314 306.9876 15.08820807116633,6917.939,95.439,541.305,538.303,0.0
52344.0,STARLINK-3851,PAYLOAD,2024-05-22 11:23:00,15.08856416,0.0001345,53.2144,265.0522,94.9188,265.1958,0.0017837,0.00028226,0.0,0 STARLINK-3851,1 52344U 22045P   24143.47430622  .00028226  00000-0  17837-2 0  9991,2 52344  53.2144 265.0522 0001345  94.9188 265.1958 15.08856416116719,6917.83,95.437,540.626,538.765,0.0
52344.0,STARLINK-3851,PAYLOAD,2024-05-23 12:49:10,15.08838483,0.0001436,53.2158,260.2942,99.5251,260.5904,0.0019424,0.00030759,0.0,0 STARLINK-3851,1 52344U 22045P   24144.53415113  .00030759  00000-0  19424-2 0  9995,2 52344  53.2158 260.2942 0001436  99.5251 260.5904 15.08838483116871,6917.885,95.438,540.743,538.757,0.0
52344.0,STARLINK-3851,PAYLOAD,2024-05-23 20:46:06,15.08865491,0.0001422,53.2164,258.809,93.3355,266.78,0.0023008,0.00036545,0.0,0 STARLINK-3851,1 52344U 22045P   24144.86534830  .00036545  00000-0  23008-2 0  9991,2 52344  53.2164 258.8090 0001422  93.3355 266.7800 15.08865491116925,6917.802,95.436,540.651,538.684,0.0
52344.0,STARLINK-3851,PAYLOAD,2024-05-23 22:21:29,15.08837639,0.0001532,53.2159,258.511,93.9156,266.2012,0.00011812,1.592e-05,0.0,0 STARLINK-3851,1 52344U 22045P   24144.93159116  .00001592  00000-0  11812-3 0  9994,2 52344  53.2159 258.5110 0001532  93.9156 266.2012 15.08837639116930,6917.888,95.438,540.812,538.693,0.0
52344.0,STARLINK-3851,PAYLOAD,2024-05-24 12:39:57,15.08860714,0.0001593,53.215,255.8353,121.6757,238.439,0.0018062,0.00028591,0.0,0 STARLINK-3851,1 52344U 22045P   24145.52774767  .00028591  00000-0  18062-2 0  9996,2 52344  53.2150 255.8353 0001593 121.6757 238.4390 15.08860714117024,6917.817,95.436,540.784,538.58,0.0
52344.0,STARLINK-3851,PAYLOAD,2024-05-24 14:15:20,15.08867488,0.0001488,53.2159,255.5369,114.7396,245.3751,0.0022424,0.00035607,0.0,0 STARLINK-3851,1 52344U 22045P   24145.59398687  .00035607  00000-0  22424-2 0  9999,2 52344  53.2159 255.5369 0001488 114.7396 245.3751 15.08867488117036,6917.796,95.436,540.691,538.632,0.0
52344.0,STARLINK-3851,PAYLOAD,2024-05-25 06:09:12,15.08815161,8.27e-05,53.2156,252.564,91.7224,268.3863,-0.00096947,-0.00015673,0.0,0 STARLINK-3851,1 52344U 22045P   24146.25639205 -.00015673  00000-0 -96947-3 0  9992,2 52344  53.2156 252.5640 0000827  91.7224 268.3863 15.08815161117133,6917.956,95.439,540.393,539.249,0.0
52344.0,STARLINK-3851,PAYLOAD,2024-05-25 14:06:08,15.08829735,0.0001413,53.2149,251.0751,58.0996,302.0133,0.00059175,9.14e-05,0.0,0 STARLINK-3851,1 52344U 22045P   24146.58759928  .00009140  00000-0  59175-3 0  9995,2 52344  53.2149 251.0751 0001413  58.0996 302.0133 15.08829735117189,6917.912,95.438,540.754,538.799,0.0
52344.0,STARLINK-3851,PAYLOAD,2024-05-25 17:16:54,15.08828826,0.0001269,53.2152,250.4813,62.2436,297.8685,0.00020162,2.921e-05,0.0,0 STARLINK-3851,1 52344U 22045P   24146.72008026  .00002921  00000-0  20162-3 0  9991,2 52344  53.2152 250.4813 0001269  62.2436 297.8685 15.08828826117206,6917.915,95.438,540.657,538.902,0.0
52344.0,STARLINK-3851,PAYLOAD,2024-05-26 12:21:32,15.08841541,0.0001465,53.2156,246.9245,58.5971,301.5164,0.00057102,8.812e-05,0.0,0 STARLINK-3851,1 52344U 22045P   24147.51496046  .00008812  00000-0  57102-3 0  9991,2 52344  53.2156 246.9245 0001465  58.5971 301.5164 15.08841541117326,6917.876,95.437,540.754,538.727,0.0
52344.0,STARLINK-3851,PAYLOAD,2024-05-27 12:12:19,15.08843339,0.0001704,53.2146,242.4563,45.773,314.3401,0.00015421,2.167e-05,0.0,0 STARLINK-3851,1 52344U 22045P   24148.50855811  .00002167  00000-0  15421-3 0  9995,2 52344  53.2146 242.4563 0001704  45.7730 314.3401 15.08843339117475,6917.87,95.437,540.914,538.556,0.0
52344.0,STARLINK-3851,PAYLOAD,2024-05-28 13:38:29,15.08842359,0.0001408,53.2158,237.6978,82.5197,277.5955,0.00036701,5.558e-05,0.0,0 STARLINK-3851,1 52344U 22045P   24149.56839515  .00005558  00000-0  36701-3 0  9996,2 52344  53.2158 237.6978 0001408  82.5197 277.5955 15.08842359117634,6917.873,95.437,540.712,538.764,0.0
52344.0,STARLINK-3851,PAYLOAD,2024-05-29 11:53:53,15.0884008,0.0001544,53.2158,233.5354,71.7804,288.3356,5.5824e-05,6.01e-06,0.0,0 STARLINK-3851,1 52344U 22045P   24150.49575646  .00000601  00000-0  55824-4 0  9994,2 52344  53.2158 233.5354 0001544  71.7804 288.3356 15.08840080117772,6917.88,95.438,540.813,538.677,0.0
52344.0,STARLINK-3851,PAYLOAD,2024-05-29 15:04:39,15.08844255,0.0001377,53.216,232.9389,89.1009,271.0141,0.00010983,1.461e-05,0.0,0 STARLINK-3851,1 52344U 22045P   24150.62823317  .00001461  00000-0  10983-3 0  9991,2 52344  53.2160 232.9389 0001377  89.1009 271.0141 15.08844255117791,6917.867,95.437,540.685,538.78,0.0
52344.0,STARLINK-3851,PAYLOAD,2024-05-30 11:44:39,15.08848608,0.0001382,53.2159,229.0725,79.7391,280.3757,0.00011263,1.505e-05,0.0,0 STARLINK-3851,1 52344U 22045P   24151.48935077  .00001505  00000-0  11263-3 0  9994,2 52344  53.2159 229.0725 0001382  79.7391 280.3757 15.08848608117922,6917.854,95.437,540.675,538.763,0.0
